0 COSMOS 1315
1 12903U 81103A   13282.48447752  .00015200  00000-0  40803-3 0  9935
2 12903 081.1379 094.1730 0007282 070.7164 345.9197 15.37796650751666
0 COSMOS 1315
1 12903U 81103A   13283.08504281  .00014768  00000-0  39630-3 0  9948
2 12903 081.1380 093.4489 0007282 068.8230 070.5219 15.37805469751758
0 COSMOS 1315
1 12903U 81103A   13285.60550074  .00012597  00000-0  33737-3 0  9961
2 12903 081.1374 090.4100 0007192 060.6181 343.8088 15.37866428752149
0 COSMOS 1315
1 12903U 81103A   13286.85468759  .00013997  00000-0  37459-3 0  9978
2 12903 081.1372 088.9036 0007178 056.7638 059.3172 15.37891597752333
0 COSMOS 1315
1 12903U 81103A   13287.89536587  .00020654  00000-0  55214-3 0  9986
2 12903 081.1373 087.6486 0007137 053.2359 060.9299 15.37920285752498
0 COSMOS 1315
1 12903U 81103A   13288.93689567  .00017111  00000-0  45698-3 0  9999
2 12903 081.1373 086.3924 0007087 049.5060 067.5829 15.37955713752656
0 COSMOS 1315
1 12903U 81103A   13290.48275309  .00018046  00000-0  48130-3 0    02
2 12903 081.1377 084.5279 0007056 044.3910 346.3451 15.37997441752895
0 COSMOS 1315
1 12903U 81103A   13291.99879049  .00014559  00000-0  38771-3 0    16
2 12903 081.1384 082.6995 0007019 039.0795 100.5407 15.38045269753129
0 COSMOS 1315
1 12903U 81103A   13293.48042913  .00016536  00000-0  43979-3 0    28
2 12903 081.1388 080.9126 0006974 034.5895 023.8078 15.38085420753359
0 COSMOS 1315
1 12903U 81103A   13294.85649441  .00020132  00000-0  53473-3 0    37
2 12903 081.1393 079.2533 0006935 029.8045 083.3682 15.38122829753569
0 COSMOS 1315
1 12903U 81103A   13295.89805706  .00017781  00000-0  47182-3 0    47
2 12903 081.1395 077.9975 0006864 026.3993 090.6309 15.38155864753721
